{
  "links" : {
    "next" : "https://api.nasa.gov/neo/rest/v1/feed?start_date=2010-05-16&end_date=2010-05-16&detailed=true&api_key=t0TVs3DtDT2H8Oy2Zy8m2eVrNsAVKAexjcZXUckd",
    "prev" : "https://api.nasa.gov/neo/rest/v1/feed?start_date=2010-05-14&end_date=2010-05-14&detailed=true&api_key=t0TVs3DtDT2H8Oy2Zy8m2eVrNsAVKAexjcZXUckd",
    "self" : "https://api.nasa.gov/neo/rest/v1/feed?start_date=2010-05-15&end_date=2010-05-15&detailed=true&api_key=t0TVs3DtDT2H8Oy2Zy8m2eVrNsAVKAexjcZXUckd"
  },
  "element_count" : 8,
  "near_earth_objects" : {
    "2010-05-15" : [ {
      "links" : {
        "self" : "https://api.nasa.gov/neo/rest/v1/neo/2163693?api_key=t0TVs3DtDT2H8Oy2Zy8m2eVrNsAVKAexjcZXUckd"
      },
      "neo_reference_id" : "2163693",
      "name" : "163693 Atira (2003 CP20)",
      "nasa_jpl_url" : "http://ssd.jpl.nasa.gov/sbdb.cgi?sstr=2163693",
      "absolute_magnitude_h" : 16.3,
      "estimated_diameter" : {
        "kilometers" : {
          "estimated_diameter_min" : 1.4606796427,
          "estimated_diameter_max" : 3.2661789745
        },
        "meters" : {
          "estimated_diameter_min" : 1460.6796427136,
          "estimated_diameter_max" : 3266.1789744576
        },
        "miles" : {
          "estimated_diameter_min" : 0.9076239703,
          "estimated_diameter_max" : 2.0295088955
        },
        "feet" : {
          "estimated_diameter_min" : 4792.2561990004,
          "estimated_diameter_max" : 10715.8106265596
        }
      },
      "is_potentially_hazardous_asteroid" : false,
      "close_approach_data" : [ {
        "close_approach_date" : "2010-05-15",
        "epoch_date_close_approach" : 1273906800000,
        "relative_velocity" : {
          "kilometers_per_second" : "17.193534482",
          "kilometers_per_hour" : "61896.7241350747",
          "miles_per_hour" : "38460.217282708"
        },
        "miss_distance" : {
          "astronomical" : "0.3773843555",
          "lunar" : "146.802520752",
          "kilometers" : "56455896",
          "miles" : "35080068"
        },
        "orbiting_body" : "Earth"
      } ],
      "orbital_data" : {
        "orbit_id" : "84",
        "orbit_determination_date" : "2017-08-02 06:21:20",
        "orbit_uncertainty" : "0",
        "minimum_orbit_intersection" : ".205902",
        "jupiter_tisserand_invariant" : "7.666",
        "epoch_osculation" : "2458000.5",
        "eccentricity" : ".3221493022499302",
        "semi_major_axis" : ".7410810355049036",
        "inclination" : "25.61780739807997",
        "ascending_node_longitude" : "103.8991143235559",
        "orbital_period" : "233.0220273374321",
        "perihelion_distance" : ".5023422970063431",
        "perihelion_argument" : "252.9324200567315",
        "aphelion_distance" : ".979819774003464",
        "perihelion_time" : "2457947.567091775550",
        "mean_anomaly" : "81.77701987464016",
        "mean_motion" : "1.544918324303715",
        "equinox" : "J2000"
      }
    }, {
      "links" : {
        "self" : "https://api.nasa.gov/neo/rest/v1/neo/2405212?api_key=t0TVs3DtDT2H8Oy2Zy8m2eVrNsAVKAexjcZXUckd"
      },
      "neo_reference_id" : "2405212",
      "name" : "405212 (2003 QC10)",
      "nasa_jpl_url" : "http://ssd.jpl.nasa.gov/sbdb.cgi?sstr=2405212",
      "absolute_magnitude_h" : 18.1,
      "estimated_diameter" : {
        "kilometers" : {
          "estimated_diameter_min" : 0.6376097899,
          "estimated_diameter_max" : 1.4257388333
        },
        "meters" : {
          "estimated_diameter_min" : 637.6097898754,
          "estimated_diameter_max" : 1425.7388332807
        },
        "miles" : {
          "estimated_diameter_min" : 0.3961922327,
          "estimated_diameter_max" : 0.8859127646
        },
        "feet" : {
          "estimated_diameter_min" : 2091.8957030147,
          "estimated_diameter_max" : 4677.6209937807
        }
      },
      "is_potentially_hazardous_asteroid" : true,
      "close_approach_data" : [ {
        "close_approach_date" : "2010-05-15",
        "epoch_date_close_approach" : 1273906800000,
        "relative_velocity" : {
          "kilometers_per_second" : "19.925263691",
          "kilometers_per_hour" : "71730.9492874571",
          "miles_per_hour" : "44570.8223503091"
        },
        "miss_distance" : {
          "astronomical" : "0.1612317439",
          "lunar" : "62.7191467285",
          "kilometers" : "24119926",
          "miles" : "14987427"
        },
        "orbiting_body" : "Earth"
      } ],
      "orbital_data" : {
        "orbit_id" : "52",
        "orbit_determination_date" : "2017-08-16 06:21:45",
        "orbit_uncertainty" : "0",
        "minimum_orbit_intersection" : ".00139343",
        "jupiter_tisserand_invariant" : "4.488",
        "epoch_osculation" : "2458000.5",
        "eccentricity" : ".7312399986355975",
        "semi_major_axis" : "1.372939873966442",
        "inclination" : "5.038568661333656",
        "ascending_node_longitude" : ".1382297741355882",
        "orbital_period" : "587.5917700727724",
        "perihelion_distance" : ".3689913224004636",
        "perihelion_argument" : "120.6883820900143",
        "aphelion_distance" : "2.376888425532421",
        "perihelion_time" : "2458219.831220493988",
        "mean_anomaly" : "225.6222850635628",
        "mean_motion" : ".6126702556698752",
        "equinox" : "J2000"
      }
    }, {
      "links" : {
        "self" : "https://api.nasa.gov/neo/rest/v1/neo/2430439?api_key=t0TVs3DtDT2H8Oy2Zy8m2eVrNsAVKAexjcZXUckd"
      },
      "neo_reference_id" : "2430439",
      "name" : "430439 (2000 LF6)",
      "nasa_jpl_url" : "http://ssd.jpl.nasa.gov/sbdb.cgi?sstr=2430439",
      "absolute_magnitude_h" : 19.8,
      "estimated_diameter" : {
        "kilometers" : {
          "estimated_diameter_min" : 0.2914439045,
          "estimated_diameter_max" : 0.6516883822
        },
        "meters" : {
          "estimated_diameter_min" : 291.4439045349,
          "estimated_diameter_max" : 651.6883821679
        },
        "miles" : {
          "estimated_diameter_min" : 0.1810947904,
          "estimated_diameter_max" : 0.4049402617
        },
        "feet" : {
          "estimated_diameter_min" : 956.1808197541,
          "estimated_diameter_max" : 2138.0853117517
        }
      },
      "is_potentially_hazardous_asteroid" : false,
      "close_approach_data" : [ {
        "close_approach_date" : "2010-05-15",
        "epoch_date_close_approach" : 1273906800000,
        "relative_velocity" : {
          "kilometers_per_second" : "11.4550681543",
          "kilometers_per_hour" : "41238.2453555527",
          "miles_per_hour" : "25623.8419543989"
        },
        "miss_distance" : {
          "astronomical" : "0.3497218493",
          "lunar" : "136.0417938232",
          "kilometers" : "52317644",
          "miles" : "32508678"
        },
        "orbiting_body" : "Earth"
      } ],
      "orbital_data" : {
        "orbit_id" : "51",
        "orbit_determination_date" : "2017-04-06 09:20:56",
        "orbit_uncertainty" : "0",
        "minimum_orbit_intersection" : ".220449",
        "jupiter_tisserand_invariant" : "2.930",
        "epoch_osculation" : "2458000.5",
        "eccentricity" : ".5919028257168419",
        "semi_major_axis" : "2.958784938093163",
        "inclination" : "15.57597583989959",
        "ascending_node_longitude" : "87.6246516525114",
        "orbital_period" : "1858.953496912987",
        "perihelion_distance" : "1.207471772547389",
        "perihelion_argument" : "151.3573413143485",
        "aphelion_distance" : "4.710098103638938",
        "perihelion_time" : "2457169.160294347148",
        "mean_anomaly" : "160.9950407753719",
        "mean_motion" : ".1936573457043561",
        "equinox" : "J2000"
      }
    } ]
  }
}